STARLINK-2482_new
1 18139C 21027AZ  21326.15072160 -.00000104  00000-0 -69474-5 0  3269
2 18139  53.0545 353.0555 0001656  60.1766  37.4170 15.06396596    12
STARLINK-2482_old
1 28139C 21027AZ  21325.14165316 -.00001283  00000-0 -85977-4 0  3256
2 28139  53.0548 357.5855 0001605  61.0782 321.3123 15.06388642    15
